{
  "type": "FeatureCollection",
  "features": [
    {
      "type": "Feature",
      "properties": {
        "norad_id": 36060,
        "name": "COSMOS 2251 DEB",
        "group": "cosmos-2251-debris",
        "lat": 70.90597832605589,
        "lon": -68.68590768868545,
        "alt_km": 747.8796846458154,
        "timestamp": "2025-12-12T05:47:29.168554+00:00",
        "meta_object_name": "COSMOS 2251 DEB",
        "meta_object_id": "1993-036AXX",
        "meta_epoch": "2025-12-09T10:49:25.276800",
        "meta_mean_motion": 14.41988994,
        "meta_eccentricity": 0.00151666,
        "meta_inclination": 74.0292,
        "meta_ra_of_asc_node": 240.6647,
        "meta_arg_of_pericenter": 338.0669,
        "meta_mean_anomaly": 21.9836,
        "meta_ephemeris_type": 0,
        "meta_classification_type": "U",
        "meta_norad_cat_id": 36060,
        "meta_element_set_no": 999,
        "meta_rev_at_epoch": 84962,
        "meta_bstar": 0.00059597173,
        "meta_mean_motion_dot": 1.931e-05,
        "meta_mean_motion_ddot": 0,
        "tle_line1": "1 36060U 93036AXX 25343.45098700  .00001931  00000+0  59597-3 0  9997",
        "tle_line2": "2 36060  74.0292 240.6647 0015166 338.0669  21.9836 14.41988994849629"
      },
      "geometry": {
        "type": "Point",
        "coordinates": [
          -68.68590768868545,
          70.90597832605589
        ]
      }
    },
    {
      "type": "Feature",
      "properties": {
        "norad_id": 36061,
        "name": "COSMOS 2251 DEB",
        "group": "cosmos-2251-debris",
        "lat": -73.09591102889473,
        "lon": -69.82490906434158,
        "alt_km": 812.4965955462585,
        "timestamp": "2025-12-12T05:47:29.168564+00:00",
        "meta_object_name": "COSMOS 2251 DEB",
        "meta_object_id": "1993-036AXY",
        "meta_epoch": "2025-12-08T08:24:20.190816",
        "meta_mean_motion": 14.33698686,
        "meta_eccentricity": 0.00368149,
        "meta_inclination": 74.0243,
        "meta_ra_of_asc_node": 7.7948,
        "meta_arg_of_pericenter": 97.1574,
        "meta_mean_anomaly": 263.3766,
        "meta_ephemeris_type": 0,
        "meta_classification_type": "U",
        "meta_norad_cat_id": 36061,
        "meta_element_set_no": 999,
        "meta_rev_at_epoch": 65041,
        "meta_bstar": 0.00050814435,
        "meta_mean_motion_dot": 1.395e-05,
        "meta_mean_motion_ddot": 0,
        "tle_line1": "1 36061U 93036AXY 25342.35023369  .00001395  00000+0  50814-3 0  9992",
        "tle_line2": "2 36061  74.0243   7.7948 0036814  97.1574 263.3766 14.33698686650411"
      },
      "geometry": {
        "type": "Point",
        "coordinates": [
          -69.82490906434158,
          -73.09591102889473
        ]
      }
    },
    {
      "type": "Feature",
      "properties": {
        "norad_id": 36073,
        "name": "COSMOS 2251 DEB",
        "group": "cosmos-2251-debris",
        "lat": 9.227288701590009,
        "lon": -33.86002356496057,
        "alt_km": 760.801574173548,
        "timestamp": "2025-12-12T05:47:29.168574+00:00",
        "meta_object_name": "COSMOS 2251 DEB",
        "meta_object_id": "1993-036AYL",
        "meta_epoch": "2025-12-10T05:13:27.011136",
        "meta_mean_motion": 14.34947803,
        "meta_eccentricity": 0.0023742,
        "meta_inclination": 74.0319,
        "meta_ra_of_asc_node": 327.182,
        "meta_arg_of_pericenter": 35.9086,
        "meta_mean_anomaly": 324.3656,
        "meta_ephemeris_type": 0,
        "meta_classification_type": "U",
        "meta_norad_cat_id": 36073,
        "meta_element_set_no": 999,
        "meta_rev_at_epoch": 70171,
        "meta_bstar": 0.00037536,
        "meta_mean_motion_dot": 1.045e-05,
        "meta_mean_motion_ddot": 0,
        "tle_line1": "1 36073U 93036AYL 25344.21767374  .00001045  00000+0  37536-3 0  9991",
        "tle_line2": "2 36073  74.0319 327.1820 0023742  35.9086 324.3656 14.34947803701715"
      },
      "geometry": {
        "type": "Point",
        "coordinates": [
          -33.86002356496057,
          9.227288701590009
        ]
      }
    },
    {
      "type": "Feature",
      "properties": {
        "norad_id": 36074,
        "name": "COSMOS 2251 DEB",
        "group": "cosmos-2251-debris",
        "lat": 45.88751314705685,
        "lon": 144.19900609625293,
        "alt_km": 725.9386748233592,
        "timestamp": "2025-12-12T05:47:29.168584+00:00",
        "meta_object_name": "COSMOS 2251 DEB",
        "meta_object_id": "1993-036AYM",
        "meta_epoch": "2025-12-04T07:35:54.379968",
        "meta_mean_motion": 14.43651509,
        "meta_eccentricity": 0.0041318,
        "meta_inclination": 73.9929,
        "meta_ra_of_asc_node": 356.1864,
        "meta_arg_of_pericenter": 90.6412,
        "meta_mean_anomaly": 269.9479,
        "meta_ephemeris_type": 0,
        "meta_classification_type": "U",
        "meta_norad_cat_id": 36074,
        "meta_element_set_no": 999,
        "meta_rev_at_epoch": 85788,
        "meta_bstar": 0.0017767,
        "meta_mean_motion_dot": 6.071e-05,
        "meta_mean_motion_ddot": 0,
        "tle_line1": "1 36074U 93036AYM 25338.31660162  .00006071  00000+0  17767-2 0  9990",
        "tle_line2": "2 36074  73.9929 356.1864 0041318  90.6412 269.9479 14.43651509857883"
      },
      "geometry": {
        "type": "Point",
        "coordinates": [
          144.19900609625293,
          45.88751314705685
        ]
      }
    },
    {
      "type": "Feature",
      "properties": {
        "norad_id": 36366,
        "name": "COSMOS 2251 DEB",
        "group": "cosmos-2251-debris",
        "lat": 73.28590797295831,
        "lon": -13.949348211634685,
        "alt_km": 824.5240887033988,
        "timestamp": "2025-12-12T05:47:29.168594+00:00",
        "meta_object_name": "COSMOS 2251 DEB",
        "meta_object_id": "1993-036AYT",
        "meta_epoch": "2025-12-11T12:38:43.259712",
        "meta_mean_motion": 14.33372709,
        "meta_eccentricity": 0.00908134,
        "meta_inclination": 74.0648,
        "meta_ra_of_asc_node": 275.2795,
        "meta_arg_of_pericenter": 303.7675,
        "meta_mean_anomaly": 55.4849,
        "meta_ephemeris_type": 0,
        "meta_classification_type": "U",
        "meta_norad_cat_id": 36366,
        "meta_element_set_no": 999,
        "meta_rev_at_epoch": 86271,
        "meta_bstar": 0.0030636872,
        "meta_mean_motion_dot": 8.83e-05,
        "meta_mean_motion_ddot": 0,
        "tle_line1": "1 36366U 93036AYT 25345.52688958  .00008830  00000+0  30637-2 0  9994",
        "tle_line2": "2 36366  74.0648 275.2795 0090813 303.7675  55.4849 14.33372709862712"
      },
      "geometry": {
        "type": "Point",
        "coordinates": [
          -13.949348211634685,
          73.28590797295831
        ]
      }
    },
    {
      "type": "Feature",
      "properties": {
        "norad_id": 36367,
        "name": "COSMOS 2251 DEB",
        "group": "cosmos-2251-debris",
        "lat": -21.570625562941416,
        "lon": 58.73211434156367,
        "alt_km": 984.4307494584627,
        "timestamp": "2025-12-12T05:47:29.168604+00:00",
        "meta_object_name": "COSMOS 2251 DEB",
        "meta_object_id": "1993-036AYU",
        "meta_epoch": "2025-12-11T01:04:58.660896",
        "meta_mean_motion": 13.86314595,
        "meta_eccentricity": 0.02625211,
        "meta_inclination": 74.1007,
        "meta_ra_of_asc_node": 234.2792,
        "meta_arg_of_pericenter": 307.5422,
        "meta_mean_anomaly": 50.2108,
        "meta_ephemeris_type": 0,
        "meta_classification_type": "U",
        "meta_norad_cat_id": 36367,
        "meta_element_set_no": 999,
        "meta_rev_at_epoch": 57506,
        "meta_bstar": 0.0022824489,
        "meta_mean_motion_dot": 3.437e-05,
        "meta_mean_motion_ddot": 0,
        "tle_line1": "1 36367U 93036AYU 25345.04512339  .00003437  00000+0  22824-2 0  9998",
        "tle_line2": "2 36367  74.1007 234.2792 0262521 307.5422  50.2108 13.86314595575060"
      },
      "geometry": {
        "type": "Point",
        "coordinates": [
          58.73211434156367,
          -21.570625562941416
        ]
      }
    },
    {
      "type": "Feature",
      "properties": {
        "norad_id": 36369,
        "name": "COSMOS 2251 DEB",
        "group": "cosmos-2251-debris",
        "lat": -28.345487656297287,
        "lon": -99.41210439688832,
        "alt_km": 651.158833548353,
        "timestamp": "2025-12-12T05:47:29.168614+00:00",
        "meta_object_name": "COSMOS 2251 DEB",
        "meta_object_id": "1993-036AYW",
        "meta_epoch": "2025-12-11T22:19:37.226208",
        "meta_mean_motion": 14.73546352,
        "meta_eccentricity": 0.00113486,
        "meta_inclination": 74.0308,
        "meta_ra_of_asc_node": 72.3076,
        "meta_arg_of_pericenter": 150.9218,
        "meta_mean_anomaly": 209.2589,
        "meta_ephemeris_type": 0,
        "meta_classification_type": "U",
        "meta_norad_cat_id": 36369,
        "meta_element_set_no": 999,
        "meta_rev_at_epoch": 85910,
        "meta_bstar": 0.0022300605,
        "meta_mean_motion_dot": 0.00014521,
        "meta_mean_motion_ddot": 0,
        "tle_line1": "1 36369U 93036AYW 25345.93029197  .00014521  00000+0  22301-2 0  9999",
        "tle_line2": "2 36369  74.0308  72.3076 0011348 150.9218 209.2589 14.73546352859107"
      },
      "geometry": {
        "type": "Point",
        "coordinates": [
          -99.41210439688832,
          -28.345487656297287
        ]
      }
    }
  ]
}